     2.10           G: GLONASS NAV DATA                     RINEX VERSION / TYPE
teqc  2015Jun23                         20220124 01:25:41UTCPGM / RUN BY / DATE
Linux 2.4.21-27.ELsmp|Opteron|gcc -static|Linux x86_64|=+   COMMENT
  2021    12    31    9.313225746155D-10                    CORR TO SYSTEM TIME
                                                            END OF HEADER
20 22  1  1 15 15  0.0-6.225891411304D-05-0.000000000000D+00 5.400000000000D+04
    1.285714599609D+04-1.163835525513D+00-3.725290298462D-09 0.000000000000D+00
    1.815293017578D+04-1.268987655640D+00 1.862645149231D-09 2.000000000000D+00
    1.246053076172D+04 3.056513786316D+00 0.000000000000D+00 0.000000000000D+00
 9 22  1  1 15 45  0.0 3.182888031006D-05 1.818989403546D-12 5.580000000000D+04
    3.022355957031D+03 1.092891693115D-01-2.793967723846D-09 0.000000000000D+00
    2.464956250000D+04 7.760467529297D-01 3.725290298462D-09-2.000000000000D+00
    5.683812500000D+03-3.438542366028D+00 2.793967723846D-09 0.000000000000D+00
 4 22  1  1 15 45  0.0 1.216102391481D-04 1.818989403546D-12 5.580000000000D+04
   -2.284417578125D+04 8.851585388184D-01 0.000000000000D+00 0.000000000000D+00
    9.195510742188D+03-2.908754348755D-01 4.656612873077D-09 6.000000000000D+00
    6.703294921875D+03 3.425805091858D+00 1.862645149231D-09 0.000000000000D+00
 5 22  1  1 15 45  0.0 8.521322160959D-05 9.094947017729D-13 5.580000000000D+04
   -1.754380664062D+04-1.164380073547D+00 0.000000000000D+00 0.000000000000D+00
    1.533309570312D+04 8.401565551758D-01 2.793967723846D-09 1.000000000000D+00
   -1.040873535156D+04 3.195418357849D+00 3.725290298462D-09 0.000000000000D+00
15 22  1  1 15 45  0.0 9.919982403517D-05-9.094947017729D-13 5.580000000000D+04
   -1.074211572266D+04 5.399131774902D-02 1.862645149231D-09 0.000000000000D+00
    5.909519531250D+03-3.064046859741D+00-9.313225746155D-10 0.000000000000D+00
   -2.235312158203D+04-8.348636627197D-01 2.793967723846D-09 0.000000000000D+00
20 22  1  1 15 45  0.0-6.225984543562D-05-0.000000000000D+00 5.580000000000D+04
    1.007851464844D+04-1.915086746216D+00-3.725290298462D-09 0.000000000000D+00
    1.567745214844D+04-1.434530258179D+00 3.725290298462D-09 2.000000000000D+00
    1.740888085938D+04 2.406010627747D+00 0.000000000000D+00 0.000000000000D+00
10 22  1  1 15 45  0.0-7.852911949158D-05-0.000000000000D+00 5.607000000000D+04
    9.160275878906D+03 1.063327789307D-01-2.793967723846D-09 0.000000000000D+00
    1.441501708984D+04 2.595681190491D+00 3.725290298462D-09-7.000000000000D+00
    1.896720263672D+04-2.015547752380D+00 0.000000000000D+00 0.000000000000D+00
 6 22  1  1 15 45  0.0-2.465676516294D-05-1.818989403546D-12 5.685000000000D+04
    8.274946289062D+02-2.618610382080D+00-0.000000000000D+00 0.000000000000D+00
    1.209415380859D+04 1.603345870972D+00-9.313225746155D-10-4.000000000000D+00
   -2.246075683594D+04 7.646942138672D-01 2.793967723846D-09 0.000000000000D+00
20 22  1  1 16 15  0.0-6.226170808077D-05-0.000000000000D+00 5.760000000000D+04
    6.028329589844D+03-2.557640075684D+00-1.862645149231D-09 0.000000000000D+00
    1.315253125000D+04-1.328445434570D+00 4.656612873077D-09 2.000000000000D+00
    2.101061035156D+04 1.570049285889D+00 0.000000000000D+00 0.000000000000D+00
 6 22  1  1 16 15  0.0-2.466049045324D-05-1.818989403546D-12 5.760000000000D+04
   -3.468762207031D+03-2.123468399048D+00-0.000000000000D+00 0.000000000000D+00
    1.516818164062D+04 1.773301124573D+00 0.000000000000D+00-4.000000000000D+00
   -2.023554052734D+04 1.691707611084D+00 3.725290298462D-09 0.000000000000D+00
 4 22  1  1 16 15  0.0 1.216130331159D-04 1.818989403546D-12 5.760000000000D+04
   -2.069363281250D+04 1.465502738953D+00 9.313225746155D-10 0.000000000000D+00
    8.142490234375D+03-8.986768722534D-01 4.656612873077D-09 6.000000000000D+00
    1.253149023438D+04 3.008029937744D+00 9.313225746155D-10 0.000000000000D+00
 5 22  1  1 16 15  0.0 8.521415293217D-05 9.094947017729D-13 5.760000000000D+04
   -1.891487158203D+04-3.661956787109D-01 0.000000000000D+00 0.000000000000D+00
    1.657915869141D+04 5.023651123047D-01 3.725290298462D-09 1.000000000000D+00
   -4.329317871094D+03 3.515671730042D+00 2.793967723846D-09 0.000000000000D+00
 9 22  1  1 16 15  0.0 3.183167427778D-05 1.818989403546D-12 5.760000000000D+04
    3.239214843750D+03 9.178161621094D-02-1.862645149231D-09 0.000000000000D+00
    2.525654882812D+04-1.043844223022D-01 3.725290298462D-09-2.000000000000D+00
   -6.458876953125D+02-3.548606872559D+00 3.725290298462D-09 0.000000000000D+00
10 22  1  1 16 15  0.0-7.852911949158D-05-0.000000000000D+00 5.760000000000D+04
    9.639810058594D+03 3.963937759399D-01-2.793967723846D-09 0.000000000000D+00
    1.855598486328D+04 1.969597816467D+00 4.656612873077D-09-7.000000000000D+00
    1.465440966797D+04-2.745266914368D+00 1.862645149231D-09 0.000000000000D+00
20 22  1  1 16 45  0.0-6.226263940334D-05-0.000000000000D+00 5.940000000000D+04
    9.991894531250D+02-2.987605094910D+00-9.313225746155D-10 0.000000000000D+00
    1.102934863281D+04-9.997777938843D-01 5.587935447693D-09 2.000000000000D+00
    2.298854101562D+04 6.135292053223D-01 0.000000000000D+00 0.000000000000D+00
 6 22  1  1 16 45  0.0-2.466421574354D-05-1.818989403546D-12 5.940000000000D+04
   -6.732980468750D+03-1.488935470581D+00 0.000000000000D+00 0.000000000000D+00
    1.832345605469D+04 1.687032699585D+00 9.313225746155D-10-4.000000000000D+00
   -1.644920117188D+04 2.488071441650D+00 3.725290298462D-09 0.000000000000D+00
 5 22  1  1 16 45  0.0 8.521601557732D-05 9.094947017729D-13 5.940000000000D+04
   -1.892091601562D+04 3.346471786499D-01 9.313225746155D-10 0.000000000000D+00
    1.700390429688D+04-6.354427337646D-02 4.656612873077D-09 1.000000000000D+00
    2.084374511719D+03 3.564451217651D+00 2.793967723846D-09 0.000000000000D+00
 9 22  1  1 16 45  0.0 3.183446824551D-05 1.818989403546D-12 5.940000000000D+04
    3.212279296875D+03-1.583938598633D-01-9.313225746155D-10 0.000000000000D+00
    2.429870068359D+04-9.435281753540D-01 2.793967723846D-09-2.000000000000D+00
   -6.925384277344D+03-3.383090972900D+00 3.725290298462D-09 0.000000000000D+00
10 22  1  1 16 45  0.0-7.852911949158D-05 0.000000000000D+00 5.940000000000D+04
    1.046000683594D+04 4.756088256836D-01-1.862645149231D-09 0.000000000000D+00
    2.140495361328D+04 1.176636695862D+00 4.656612873077D-09-7.000000000000D+00
    9.211930664062D+03-3.262724876404D+00 1.862645149231D-09 0.000000000000D+00
 9 22  1  1 17 15  0.0 3.183726221323D-05 1.818989403546D-12 6.120000000000D+04
    2.552897460938D+03-6.008119583130D-01-0.000000000000D+00 0.000000000000D+00
    2.194974169922D+04-1.633691787720D+00 1.862645149231D-09-2.000000000000D+00
   -1.266693994141D+04-2.954814910889D+00 3.725290298462D-09 0.000000000000D+00
 6 22  1  1 17 15  0.0-2.466700971127D-05-1.818989403546D-12 6.120000000000D+04
   -8.810255371094D+03-8.232955932617D-01 9.313225746155D-10 0.000000000000D+00
    2.107639892578D+04 1.327131271362D+00 2.793967723846D-09-4.000000000000D+00
   -1.139393310547D+04 3.092514038086D+00 3.725290298462D-09 0.000000000000D+00
 5 22  1  1 17 15  0.0 8.521787822247D-05 9.094947017729D-13 6.120000000000D+04
   -1.782507421875D+04 8.451099395752D-01 1.862645149231D-09 0.000000000000D+00
    1.625623095703D+04-7.854022979736D-01 4.656612873077D-09 1.000000000000D+00
    8.337200195312D+03 3.338103294373D+00 1.862645149231D-09 0.000000000000D+00
10 22  1  1 17 15  0.0-7.853005081415D-05 0.000000000000D+00 6.120000000000D+04
    1.120382519531D+04 3.093633651733D-01-9.313225746155D-10 0.000000000000D+00
    2.275647607422D+04 3.248977661133D-01 4.656612873077D-09-7.000000000000D+00
    3.059945312500D+03-3.528590202332D+00 2.793967723846D-09 0.000000000000D+00
 7 22  1  1 17 15  0.0-3.873184323311D-05-0.000000000000D+00 6.165000000000D+04
    3.700345703125D+03-1.826255798340D+00-0.000000000000D+00 0.000000000000D+00
    1.224060107422D+04 2.414006233215D+00-0.000000000000D+00 5.000000000000D+00
   -2.204705468750D+04 1.027357101440D+00 3.725290298462D-09 0.000000000000D+00
 9 22  1  1 17 45  0.0 3.184005618095D-05 1.818989403546D-12 6.300000000000D+04
    9.799023437500D+02-1.158175468445D+00 0.000000000000D+00 0.000000000000D+00
    1.855735546875D+04-2.091907501221D+00 9.313225746155D-10-2.000000000000D+00
   -1.742481005859D+04-2.297297477722D+00 3.725290298462D-09 0.000000000000D+00
 6 22  1  1 17 45  0.0-2.467073500156D-05-1.818989403546D-12 6.300000000000D+04
   -9.743786132812D+03-2.352991104126D-01 1.862645149231D-09 0.000000000000D+00
    2.295274804688D+04 7.213325500488D-01 2.793967723846D-09-4.000000000000D+00
   -5.459623046875D+03 3.458453178406D+00 3.725290298462D-09 0.000000000000D+00
 5 22  1  1 17 45  0.0 8.521974086761D-05 9.094947017729D-13 6.300000000000D+04
   -1.602876855469D+04 1.106640815735D+00 2.793967723846D-09 0.000000000000D+00
    1.414357226562D+04-1.561627388000D+00 4.656612873077D-09 1.000000000000D+00
    1.394657470703D+04 2.854138374329D+00 9.313225746155D-10 0.000000000000D+00
 7 22  1  1 17 45  0.0-3.873184323311D-05 0.000000000000D+00 6.300000000000D+04
    9.015205078125D+02-1.271182060242D+00 0.000000000000D+00 0.000000000000D+00
    1.655945361328D+04 2.336148262024D+00 0.000000000000D+00 5.000000000000D+00
   -1.936781982422D+04 1.930031776428D+00 3.725290298462D-09 0.000000000000D+00
10 22  1  1 17 45  0.0-7.853005081415D-05 0.000000000000D+00 6.300000000000D+04
    1.143129296875D+04-9.279537200928D-02-0.000000000000D+00 0.000000000000D+00
    2.260837597656D+04-4.709215164185D-01 3.725290298462D-09-7.000000000000D+00
   -3.327579589844D+03-3.522795677185D+00 3.725290298462D-09 0.000000000000D+00
 9 22  1  1 18 15  0.0 3.184285014868D-05 1.818989403546D-12 6.480000000000D+04
   -1.624972656250D+03-1.729379653931D+00 0.000000000000D+00 0.000000000000D+00
    1.458598632812D+04-2.273126602173D+00-0.000000000000D+00-2.000000000000D+00
   -2.083027880859D+04-1.462021827698D+00 3.725290298462D-09 0.000000000000D+00
